OBJECT_NAME,OBJECT_ID,EPOCH,MEAN_MOTION,ECCENTRICITY,INCLINATION,RA_OF_ASC_NODE,ARG_OF_PERICENTER,MEAN_ANOMALY,EPHEMERIS_TYPE,CLASSIFICATION_TYPE,NORAD_CAT_ID,ELEMENT_SET_NO,REV_AT_EPOCH,BSTAR,MEAN_MOTION_DOT,MEAN_MOTION_DDOT
TDRS 3,1988-091B,2026-07-07T07:37:38.439264,1.00265936,.00368839,12.5868,340.8629,355.8961,13.9494,0,U,19548,999,12559,0,-.291E-5,0
FLTSATCOM 8 (USA 46),1989-077A,2026-07-07T07:30:07.134912,1.00267077,.00036543,12.4157,351.0418,65.5622,106.8777,0,U,20253,999,26076,0,-.359E-5,0
SKYNET 4C,1990-079A,2026-07-07T12:51:35.335296,0.98576230,.000315,13.3318,349.6808,134.8450,231.6659,0,U,20776,999,24,0,.13E-6,0
TDRS 5,1991-054B,2026-07-07T15:03:32.948352,1.00270866,.00071167,14.0684,353.6220,256.6588,93.5091,0,U,21639,999,12791,0,.91E-6,0
TDRS 6,1993-003B,2026-07-07T08:53:41.808192,1.00263978,.00090279,14.1830,356.9078,180.2249,195.4577,0,U,22314,999,12261,0,-.289E-5,0
UFO 2 (USA 95),1993-056A,2026-07-06T15:38:29.086656,1.00277966,.00039747,11.9014,3.4464,9.9975,174.5392,0,U,22787,999,11874,0,.133E-5,0
USA 99 (MILSTAR-1 1),1994-009A,2026-07-07T13:29:19.869792,0.98720164,.00015567,17.6554,27.4916,188.3755,163.2836,0,U,22988,999,3314,0,.15E-6,0
UFO 4 (USA 108),1995-003A,2026-07-07T14:53:06.845568,1.00275028,.00030592,9.6832,13.0645,89.7719,218.2991,0,U,23467,999,11515,0,-.13E-6,0
TDRS 7,1995-035B,2026-07-07T11:25:38.527968,1.00275941,.00116821,13.3686,348.0495,84.1811,113.8080,0,U,23613,999,11345,0,-.233E-5,0
USA 115 (MILSTAR-1 2),1995-060A,2026-07-07T13:19:49.448352,1.00271597,.00062966,14.0797,3.5890,120.9531,270.9026,0,U,23712,999,3309,0,-.196E-5,0
INMARSAT 3-F1,1996-020A,2026-07-07T13:33:52.225056,0.99978859,.00041835,10.6423,46.4452,79.0581,246.7638,0,U,23839,999,11045,0,.21E-6,0
INMARSAT 3-F2,1996-053A,2026-07-07T12:38:58.691616,0.99995534,.00064421,9.9017,53.7276,47.3680,143.5739,0,U,24307,999,10912,0,-.346E-5,0
INMARSAT 3-F3,1996-070A,2026-07-07T07:00:10.007136,0.99991987,.00034105,10.3606,49.4589,64.5378,298.1940,0,U,24674,999,10811,0,.93E-6,0
USA 134,1997-065A,2026-07-07T13:32:37.100256,1.00272234,.00023408,12.8069,21.5633,338.9110,15.7702,0,U,25019,999,3315,0,-.55E-6,0
INMARSAT 3-F5,1998-006B,2026-07-07T11:46:46.920576,1.00267976,.00039717,9.7355,53.0526,57.4589,297.6180,0,U,25153,999,10409,0,-.282E-5,0
ABS-6,1999-053A,2026-07-06T23:06:17.542656,1.00278444,.0003425,0.0654,266.6862,184.1953,339.6560,0,U,25924,999,9803,0,-.103E-5,0
UFO 10 (USA 146),1999-063A,2026-07-07T08:30:13.864896,1.00273889,.00012828,9.8547,27.1038,96.5956,266.1988,0,U,25967,999,9755,0,-.179E-5,0
ASIASTAR,2000-016A,2026-07-07T14:14:43.564128,1.00275180,.0003782,9.1739,57.9315,58.0027,128.2834,0,U,26107,999,9612,0,-.325E-5,0
USA 149 (DSP 20),2000-024A,2026-07-07T15:06:50.227200,1.00283627,.00014382,13.1850,11.7000,299.3233,36.4307,0,U,26356,999,3311,0,.103E-5,0
TDRS 8,2000-034A,2026-07-07T14:08:59.114976,1.00273813,.0004399,12.7151,31.1470,30.4724,161.0062,0,U,26388,999,9538,0,-.189E-5,0
NSS-11,2000-059A,2026-07-07T14:09:24.763680,1.00272291,.00028815,2.1760,81.1525,28.4050,204.3497,0,U,26554,999,4149,0,.39E-6,0
USA 153,2000-065A,2026-07-06T22:59:10.724928,1.00274909,.00022161,11.6572,35.2527,55.8077,313.0665,0,U,26575,999,3313,0,-.316E-5,0
AMC-6,2000-067A,2026-07-07T15:20:18.704832,1.00271402,.00038548,0.2010,83.5954,35.9065,261.1439,0,U,26580,999,9409,0,.103E-5,0
USA 157 (MILSTAR-2 2),2001-009A,2026-07-07T15:14:01.288896,1.00271291,.0040456,11.5639,19.6295,178.7755,165.6013,0,U,26715,999,3314,0,.117E-5,0
INTELSAT 902 (IS-902),2001-039A,2026-07-07T11:47:39.336864,1.00272462,.00044153,6.1673,71.5349,31.4521,309.2722,0,U,26900,999,9089,0,-.272E-5,0
USA 164 (MILSTAR-2 3),2002-001A,2026-07-07T05:16:57.052992,1.00274465,.00986883,11.2021,21.7774,8.9588,352.6345,0,U,27168,999,3316,0,.106E-5,0
INTELSAT 904 (IS-904),2002-007A,2026-07-07T11:53:08.811168,1.00272979,.00056492,6.9674,68.9385,20.5791,342.7553,0,U,27380,999,5197,0,-.214E-5,0
DIRECTV 5 (TEMPO 1),2002-023A,2026-07-07T13:29:59.931744,1.00271111,.00031381,4.9265,75.0571,33.6207,269.2467,0,U,27426,999,8832,0,-.45E-6,0
INTELSAT 905 (IS-905),2002-027A,2026-07-07T14:24:16.341696,1.00272047,.00037014,6.8014,69.5516,41.3362,253.5448,0,U,27438,999,5156,0,.104E-5,0
GALAXY 3C (G-3C),2002-030A,2026-07-07T13:21:16.357248,1.00271292,.00016719,3.7826,77.7134,35.9642,277.3401,0,U,27445,999,4669,0,-.14E-5,0
INTELSAT 906 (IS-906),2002-041A,2026-07-07T05:29:48.319872,1.00271515,.00040108,5.8521,72.6749,15.3631,343.7400,0,U,27513,999,8722,0,.25E-6,0
